CCSDS_OMM_VERS = 2.0
CREATION_DATE  = 
ORIGINATOR     = 

OBJECT_NAME    = SL-14 R/B
OBJECT_ID      = 1986-046B
CENTER_NAME    = EARTH
REF_FRAME      = TEME
TIME_SYSTEM    = UTC
MEAN_ELEMENT_THEORY = SGP/SGP4

EPOCH          = 2026-02-17T03:06:03.148704
MEAN_MOTION    = 14.85570191
ECCENTRICITY   = .0021653
INCLINATION    = 82.4799
RA_OF_ASC_NODE = 99.6134
ARG_OF_PERICENTER = 297.6929
MEAN_ANOMALY   = 62.2090

EPHEMERIS_TYPE = 0
CLASSIFICATION_TYPE = U
NORAD_CAT_ID   = 16792
ELEMENT_SET_NO = 999
REV_AT_EPOCH   = 12335
BSTAR          = .56245E-4
MEAN_MOTION_DOT = .512E-5
MEAN_MOTION_DDOT = 0

CCSDS_OMM_VERS = 2.0
CREATION_DATE  = 
ORIGINATOR     = 

OBJECT_NAME    = SL-14 R/B
OBJECT_ID      = 1986-055B
CENTER_NAME    = EARTH
REF_FRAME      = TEME
TIME_SYSTEM    = UTC
MEAN_ELEMENT_THEORY = SGP/SGP4

EPOCH          = 2026-02-16T19:11:53.325600
MEAN_MOTION    = 14.85621032
ECCENTRICITY   = .0019931
INCLINATION    = 82.5231
RA_OF_ASC_NODE = 146.3035
ARG_OF_PERICENTER = 44.8874
MEAN_ANOMALY   = 76.2471

EPHEMERIS_TYPE = 0
CLASSIFICATION_TYPE = U
NORAD_CAT_ID   = 16882
ELEMENT_SET_NO = 999
REV_AT_EPOCH   = 11626
BSTAR          = .54437E-4
MEAN_MOTION_DOT = .497E-5
MEAN_MOTION_DDOT = 0

CCSDS_OMM_VERS = 2.0
CREATION_DATE  = 
ORIGINATOR     = 

OBJECT_NAME    = AJISAI (EGS)
OBJECT_ID      = 1986-061A
CENTER_NAME    = EARTH
REF_FRAME      = TEME
TIME_SYSTEM    = UTC
MEAN_ELEMENT_THEORY = SGP/SGP4

EPOCH          = 2026-02-17T03:45:10.102752
MEAN_MOTION    = 12.44515298
ECCENTRICITY   = .001123
INCLINATION    = 50.0083
RA_OF_ASC_NODE = 156.4878
ARG_OF_PERICENTER = 234.1060
MEAN_ANOMALY   = 192.7671

EPHEMERIS_TYPE = 0
CLASSIFICATION_TYPE = U
NORAD_CAT_ID   = 16908
ELEMENT_SET_NO = 999
REV_AT_EPOCH   = 46544
BSTAR          = -.717E-4
MEAN_MOTION_DOT = -.107E-5
MEAN_MOTION_DDOT = 0

CCSDS_OMM_VERS = 2.0
CREATION_DATE  = 
ORIGINATOR     = 

OBJECT_NAME    = COSMOS 1812
OBJECT_ID      = 1987-003A
CENTER_NAME    = EARTH
REF_FRAME      = TEME
TIME_SYSTEM    = UTC
MEAN_ELEMENT_THEORY = SGP/SGP4

EPOCH          = 2026-02-17T00:09:31.918752
MEAN_MOTION    = 16.00839192
ECCENTRICITY   = .0002756
INCLINATION    = 82.4751
RA_OF_ASC_NODE = 219.1988
ARG_OF_PERICENTER = 301.4870
MEAN_ANOMALY   = 58.6139

EPHEMERIS_TYPE = 0
CLASSIFICATION_TYPE = U
NORAD_CAT_ID   = 17295
ELEMENT_SET_NO = 999
REV_AT_EPOCH   = 14115
BSTAR          = .70436E-3
MEAN_MOTION_DOT = .374477E-2
MEAN_MOTION_DDOT = .58459E-4

CCSDS_OMM_VERS = 2.0
CREATION_DATE  = 
ORIGINATOR     = 

OBJECT_NAME    = SL-14 R/B
OBJECT_ID      = 1987-024B
CENTER_NAME    = EARTH
REF_FRAME      = TEME
TIME_SYSTEM    = UTC
MEAN_ELEMENT_THEORY = SGP/SGP4

EPOCH          = 2026-02-17T04:04:57.484992
MEAN_MOTION    = 14.86112494
ECCENTRICITY   = .0017406
INCLINATION    = 82.5275
RA_OF_ASC_NODE = 112.0514
ARG_OF_PERICENTER = 333.2002
MEAN_ANOMALY   = 26.8314

EPHEMERIS_TYPE = 0
CLASSIFICATION_TYPE = U
NORAD_CAT_ID   = 17567
ELEMENT_SET_NO = 999
REV_AT_EPOCH   = 8508
BSTAR          = .56579E-4
MEAN_MOTION_DOT = .521E-5
MEAN_MOTION_DDOT = 0

CCSDS_OMM_VERS = 2.0
CREATION_DATE  = 
ORIGINATOR     = 

OBJECT_NAME    = COSMOS 1833
OBJECT_ID      = 1987-027A
CENTER_NAME    = EARTH
REF_FRAME      = TEME
TIME_SYSTEM    = UTC
MEAN_ELEMENT_THEORY = SGP/SGP4

EPOCH          = 2026-02-17T01:09:20.408832
MEAN_MOTION    = 14.13057397
ECCENTRICITY   = .0024862
INCLINATION    = 70.9227
RA_OF_ASC_NODE = 9.3980
ARG_OF_PERICENTER = 242.6251
MEAN_ANOMALY   = 117.2340

EPHEMERIS_TYPE = 0
CLASSIFICATION_TYPE = U
NORAD_CAT_ID   = 17589
ELEMENT_SET_NO = 999
REV_AT_EPOCH   = 740
BSTAR          = .22346E-5
MEAN_MOTION_DOT = -.44E-6
MEAN_MOTION_DDOT = 0

CCSDS_OMM_VERS = 2.0
CREATION_DATE  = 
ORIGINATOR     = 

OBJECT_NAME    = SL-16 R/B
OBJECT_ID      = 1987-027B
CENTER_NAME    = EARTH
REF_FRAME      = TEME
TIME_SYSTEM    = UTC
MEAN_ELEMENT_THEORY = SGP/SGP4

EPOCH          = 2026-02-17T03:39:10.253664
MEAN_MOTION    = 14.17163565
ECCENTRICITY   = .0004575
INCLINATION    = 71.0042
RA_OF_ASC_NODE = 319.7724
ARG_OF_PERICENTER = 179.2491
MEAN_ANOMALY   = 180.8640

EPHEMERIS_TYPE = 0
CLASSIFICATION_TYPE = U
NORAD_CAT_ID   = 17590
ELEMENT_SET_NO = 999
REV_AT_EPOCH   = 1243
BSTAR          = .11993E-3
MEAN_MOTION_DOT = .194E-5
MEAN_MOTION_DDOT = 0

CCSDS_OMM_VERS = 2.0
CREATION_DATE  = 
ORIGINATOR     = 

OBJECT_NAME    = SL-14 R/B
OBJECT_ID      = 1987-038B
CENTER_NAME    = EARTH
REF_FRAME      = TEME
TIME_SYSTEM    = UTC
MEAN_ELEMENT_THEORY = SGP/SGP4

EPOCH          = 2026-02-17T03:42:29.337408
MEAN_MOTION    = 14.85349861
ECCENTRICITY   = .0017948
INCLINATION    = 82.5037
RA_OF_ASC_NODE = 316.1494
ARG_OF_PERICENTER = 229.7791
MEAN_ANOMALY   = 130.1856

EPHEMERIS_TYPE = 0
CLASSIFICATION_TYPE = U
NORAD_CAT_ID   = 17912
ELEMENT_SET_NO = 999
REV_AT_EPOCH   = 7618
BSTAR          = .62572E-4
MEAN_MOTION_DOT = .563E-5
MEAN_MOTION_DDOT = 0

CCSDS_OMM_VERS = 2.0
CREATION_DATE  = 
ORIGINATOR     = 

OBJECT_NAME    = COSMOS 1844
OBJECT_ID      = 1987-041A
CENTER_NAME    = EARTH
REF_FRAME      = TEME
TIME_SYSTEM    = UTC
MEAN_ELEMENT_THEORY = SGP/SGP4

EPOCH          = 2026-02-17T04:13:19.881120
MEAN_MOTION    = 14.14548768
ECCENTRICITY   = .0029042
INCLINATION    = 70.8980
RA_OF_ASC_NODE = 77.4460
ARG_OF_PERICENTER = 50.6380
MEAN_ANOMALY   = 309.7308

EPHEMERIS_TYPE = 0
CLASSIFICATION_TYPE = U
NORAD_CAT_ID   = 17973
ELEMENT_SET_NO = 999
REV_AT_EPOCH   = 68
BSTAR          = .22233E-3
MEAN_MOTION_DOT = .38E-5
MEAN_MOTION_DDOT = 0

CCSDS_OMM_VERS = 2.0
CREATION_DATE  = 
ORIGINATOR     = 

OBJECT_NAME    = SL-14 R/B
OBJECT_ID      = 1987-055B
CENTER_NAME    = EARTH
REF_FRAME      = TEME
TIME_SYSTEM    = UTC
MEAN_ELEMENT_THEORY = SGP/SGP4

EPOCH          = 2026-02-16T22:23:29.919552
MEAN_MOTION    = 14.85602993
ECCENTRICITY   = .0022347
INCLINATION    = 82.5009
RA_OF_ASC_NODE = 8.5895
ARG_OF_PERICENTER = 82.5944
MEAN_ANOMALY   = 277.7810

EPHEMERIS_TYPE = 0
CLASSIFICATION_TYPE = U
NORAD_CAT_ID   = 18153
ELEMENT_SET_NO = 999
REV_AT_EPOCH   = 6685
BSTAR          = .69375E-4
MEAN_MOTION_DOT = .627E-5
MEAN_MOTION_DDOT = 0

CCSDS_OMM_VERS = 2.0
CREATION_DATE  = 
ORIGINATOR     = 

OBJECT_NAME    = COSMOS 1867
OBJECT_ID      = 1987-060A
CENTER_NAME    = EARTH
REF_FRAME      = TEME
TIME_SYSTEM    = UTC
MEAN_ELEMENT_THEORY = SGP/SGP4

EPOCH          = 2026-02-17T04:21:12.485664
MEAN_MOTION    = 14.31499712
ECCENTRICITY   = .0014174
INCLINATION    = 65.0122
RA_OF_ASC_NODE = 4.1355
ARG_OF_PERICENTER = 277.4475
MEAN_ANOMALY   = 82.4999

EPHEMERIS_TYPE = 0
CLASSIFICATION_TYPE = U
NORAD_CAT_ID   = 18187
ELEMENT_SET_NO = 999
REV_AT_EPOCH   = 1700
BSTAR          = .25248E-4
MEAN_MOTION_DOT = -.33E-6
MEAN_MOTION_DDOT = 0

CCSDS_OMM_VERS = 2.0
CREATION_DATE  = 
ORIGINATOR     = 

OBJECT_NAME    = SL-14 R/B
OBJECT_ID      = 1988-001B
CENTER_NAME    = EARTH
REF_FRAME      = TEME
TIME_SYSTEM    = UTC
MEAN_ELEMENT_THEORY = SGP/SGP4

EPOCH          = 2026-02-16T22:14:38.614848
MEAN_MOTION    = 14.85501686
ECCENTRICITY   = .0016882
INCLINATION    = 82.5116
RA_OF_ASC_NODE = 214.8874
ARG_OF_PERICENTER = 310.2989
MEAN_ANOMALY   = 49.6750

EPHEMERIS_TYPE = 0
CLASSIFICATION_TYPE = U
NORAD_CAT_ID   = 18749
ELEMENT_SET_NO = 999
REV_AT_EPOCH   = 3894
BSTAR          = .65098E-4
MEAN_MOTION_DOT = .587E-5
MEAN_MOTION_DDOT = 0

