SL-14 R/B               
1 16792U 86046B   26048.12920311  .00000512  00000+0  56245-4 0  9991
2 16792  82.4799  99.6134 0021653 297.6929  62.2090 14.85570191123353
SL-14 R/B               
1 16882U 86055B   26047.79992275  .00000497  00000+0  54437-4 0  9994
2 16882  82.5231 146.3035 0019931  44.8874  76.2471 14.85621032116263
AJISAI (EGS)            
1 16908U 86061A   26048.15636693 -.00000107  00000+0 -71700-4 0  9992
2 16908  50.0083 156.4878 0011230 234.1060 192.7671 12.44515298465441
COSMOS 1812             
1 17295U 87003A   26048.00661943  .00374477  58459-4  70436-3 0  9991
2 17295  82.4751 219.1988 0002756 301.4870  58.6139 16.00839192141157
SL-14 R/B               
1 17567U 87024B   26048.17010978  .00000521  00000+0  56579-4 0  9993
2 17567  82.5275 112.0514 0017406 333.2002  26.8314 14.86112494 85087
COSMOS 1833             
1 17589U 87027A   26048.04815288 -.00000044  00000+0  22346-5 0  9990
2 17589  70.9227   9.3980 0024862 242.6251 117.2340 14.13057397  7401
SL-16 R/B               
1 17590U 87027B   26048.15220201  .00000194  00000+0  11993-3 0  9998
2 17590  71.0042 319.7724 0004575 179.2491 180.8640 14.17163565 12431
SL-14 R/B               
1 17912U 87038B   26048.15450622  .00000563  00000+0  62572-4 0  9990
2 17912  82.5037 316.1494 0017948 229.7791 130.1856 14.85349861 76186
COSMOS 1844             
1 17973U 87041A   26048.17592455  .00000380  00000+0  22233-3 0  9990
2 17973  70.8980  77.4460 0029042  50.6380 309.7308 14.14548768   680
SL-14 R/B               
1 18153U 87055B   26047.93298518  .00000627  00000+0  69375-4 0  9995
2 18153  82.5009   8.5895 0022347  82.5944 277.7810 14.85602993 66853
COSMOS 1867             
1 18187U 87060A   26048.18139451 -.00000033  00000+0  25248-4 0  9999
2 18187  65.0122   4.1355 0014174 277.4475  82.4999 14.31499712 17004
SL-14 R/B               
1 18749U 88001B   26047.92683582  .00000587  00000+0  65098-4 0  9999
2 18749  82.5116 214.8874 0016882 310.2989  49.6750 14.85501686 38944
